{
  "type": "FeatureCollection",
  "features": [
    {
      "type": "Feature",
      "properties": {
        "norad_id": 30208,
        "name": "FENGYUN 1C DEB",
        "group": "fengyun-1c-debris",
        "lat": -40.595462872074265,
        "lon": 8.500308796050154,
        "alt_km": 819.6894813651061,
        "timestamp": "2025-12-26T11:25:45.469271+00:00",
        "meta_object_name": "FENGYUN 1C DEB",
        "meta_object_id": "1999-025VR",
        "meta_epoch": "2025-12-25T22:29:26.468160",
        "meta_mean_motion": 14.23554114,
        "meta_eccentricity": 0.0033124,
        "meta_inclination": 98.5621,
        "meta_ra_of_asc_node": 0.5577,
        "meta_arg_of_pericenter": 230.7156,
        "meta_mean_anomaly": 206.5933,
        "meta_ephemeris_type": 0,
        "meta_classification_type": "U",
        "meta_norad_cat_id": 30208,
        "meta_element_set_no": 999,
        "meta_rev_at_epoch": 98025,
        "meta_bstar": 0.00044228,
        "meta_mean_motion_dot": 9.69e-06,
        "meta_mean_motion_ddot": 0,
        "tle_line1": "1 30208U 99025VR  25359.93711190  .00000969  00000+0  44228-3 0  9999",
        "tle_line2": "2 30208  98.5621   0.5577 0033124 230.7156 206.5933 14.23554114980259"
      },
      "geometry": {
        "type": "Point",
        "coordinates": [
          8.500308796050154,
          -40.595462872074265
        ]
      }
    },
    {
      "type": "Feature",
      "properties": {
        "norad_id": 30209,
        "name": "FENGYUN 1C DEB",
        "group": "fengyun-1c-debris",
        "lat": 43.359657060836156,
        "lon": -174.73446010332594,
        "alt_km": 832.9545597613778,
        "timestamp": "2025-12-26T11:25:45.469280+00:00",
        "meta_object_name": "FENGYUN 1C DEB",
        "meta_object_id": "1999-025VS",
        "meta_epoch": "2025-12-25T23:08:46.705344",
        "meta_mean_motion": 14.12917026,
        "meta_eccentricity": 0.0039001,
        "meta_inclination": 98.7146,
        "meta_ra_of_asc_node": 356.4395,
        "meta_arg_of_pericenter": 200.6137,
        "meta_mean_anomaly": 213.9402,
        "meta_ephemeris_type": 0,
        "meta_classification_type": "U",
        "meta_norad_cat_id": 30209,
        "meta_element_set_no": 999,
        "meta_rev_at_epoch": 97393,
        "meta_bstar": 0.00023638,
        "meta_mean_motion_dot": 4e-06,
        "meta_mean_motion_ddot": 0,
        "tle_line1": "1 30209U 99025VS  25359.96442946  .00000400  00000+0  23638-3 0  9995",
        "tle_line2": "2 30209  98.7146 356.4395 0039001 200.6137 213.9402 14.12917026973933"
      },
      "geometry": {
        "type": "Point",
        "coordinates": [
          -174.73446010332594,
          43.359657060836156
        ]
      }
    },
    {
      "type": "Feature",
      "properties": {
        "norad_id": 30210,
        "name": "FENGYUN 1C DEB",
        "group": "fengyun-1c-debris",
        "lat": -79.44946231301115,
        "lon": 110.82602053704078,
        "alt_km": 913.5233531089434,
        "timestamp": "2025-12-26T11:25:45.469289+00:00",
        "meta_object_name": "FENGYUN 1C DEB",
        "meta_object_id": "1999-025VT",
        "meta_epoch": "2025-12-26T01:52:07.439232",
        "meta_mean_motion": 14.08295759,
        "meta_eccentricity": 0.0056714,
        "meta_inclination": 99.189,
        "meta_ra_of_asc_node": 50.0673,
        "meta_arg_of_pericenter": 99.8326,
        "meta_mean_anomaly": 316.8289,
        "meta_ephemeris_type": 0,
        "meta_classification_type": "U",
        "meta_norad_cat_id": 30210,
        "meta_element_set_no": 999,
        "meta_rev_at_epoch": 96945,
        "meta_bstar": 0.00065644,
        "meta_mean_motion_dot": 1.093e-05,
        "meta_mean_motion_ddot": 0,
        "tle_line1": "1 30210U 99025VT  25360.07786388  .00001093  00000+0  65644-3 0  9994",
        "tle_line2": "2 30210  99.1890  50.0673 0056714  99.8326 316.8289 14.08295759969455"
      },
      "geometry": {
        "type": "Point",
        "coordinates": [
          110.82602053704078,
          -79.44946231301115
        ]
      }
    },
    {
      "type": "Feature",
      "properties": {
        "norad_id": 30212,
        "name": "FENGYUN 1C DEB",
        "group": "fengyun-1c-debris",
        "lat": -28.12843176759548,
        "lon": -128.63822259069943,
        "alt_km": 956.4039500558365,
        "timestamp": "2025-12-26T11:25:45.469298+00:00",
        "meta_object_name": "FENGYUN 1C DEB",
        "meta_object_id": "1999-025VV",
        "meta_epoch": "2025-12-25T14:56:30.844608",
        "meta_mean_motion": 13.97065977,
        "meta_eccentricity": 0.0096975,
        "meta_inclination": 99.4564,
        "meta_ra_of_asc_node": 225.3725,
        "meta_arg_of_pericenter": 202.0401,
        "meta_mean_anomaly": 157.6577,
        "meta_ephemeris_type": 0,
        "meta_classification_type": "U",
        "meta_norad_cat_id": 30212,
        "meta_element_set_no": 999,
        "meta_rev_at_epoch": 96405,
        "meta_bstar": 0.00047375,
        "meta_mean_motion_dot": 6.41e-06,
        "meta_mean_motion_ddot": 0,
        "tle_line1": "1 30212U 99025VV  25359.62257922  .00000641  00000+0  47375-3 0  9991",
        "tle_line2": "2 30212  99.4564 225.3725 0096975 202.0401 157.6577 13.97065977964054"
      },
      "geometry": {
        "type": "Point",
        "coordinates": [
          -128.63822259069943,
          -28.12843176759548
        ]
      }
    },
    {
      "type": "Feature",
      "properties": {
        "norad_id": 30213,
        "name": "FENGYUN 1C DEB",
        "group": "fengyun-1c-debris",
        "lat": 38.798456111860524,
        "lon": 69.72212252415594,
        "alt_km": 901.7303018830517,
        "timestamp": "2025-12-26T11:25:45.469307+00:00",
        "meta_object_name": "FENGYUN 1C DEB",
        "meta_object_id": "1999-025VW",
        "meta_epoch": "2025-12-25T15:35:54.758976",
        "meta_mean_motion": 14.11647765,
        "meta_eccentricity": 0.0072589,
        "meta_inclination": 99.1219,
        "meta_ra_of_asc_node": 76.3042,
        "meta_arg_of_pericenter": 208.1444,
        "meta_mean_anomaly": 314.7347,
        "meta_ephemeris_type": 0,
        "meta_classification_type": "U",
        "meta_norad_cat_id": 30213,
        "meta_element_set_no": 999,
        "meta_rev_at_epoch": 96697,
        "meta_bstar": 0.0015596,
        "meta_mean_motion_dot": 2.862e-05,
        "meta_mean_motion_ddot": 0,
        "tle_line1": "1 30213U 99025VW  25359.64993934  .00002862  00000+0  15596-2 0  9990",
        "tle_line2": "2 30213  99.1219  76.3042 0072589 208.1444 314.7347 14.11647765966976"
      },
      "geometry": {
        "type": "Point",
        "coordinates": [
          69.72212252415594,
          38.798456111860524
        ]
      }
    },
    {
      "type": "Feature",
      "properties": {
        "norad_id": 30214,
        "name": "FENGYUN 1C DEB",
        "group": "fengyun-1c-debris",
        "lat": 81.20061821486142,
        "lon": -23.65539714326714,
        "alt_km": 780.548580740392,
        "timestamp": "2025-12-26T11:25:45.469316+00:00",
        "meta_object_name": "FENGYUN 1C DEB",
        "meta_object_id": "1999-025VX",
        "meta_epoch": "2025-12-25T21:52:02.882208",
        "meta_mean_motion": 14.31027904,
        "meta_eccentricity": 0.002017,
        "meta_inclination": 98.723,
        "meta_ra_of_asc_node": 73.1104,
        "meta_arg_of_pericenter": 3.7365,
        "meta_mean_anomaly": 57.6974,
        "meta_ephemeris_type": 0,
        "meta_classification_type": "U",
        "meta_norad_cat_id": 30214,
        "meta_element_set_no": 999,
        "meta_rev_at_epoch": 97755,
        "meta_bstar": 0.0016078,
        "meta_mean_motion_dot": 4.199e-05,
        "meta_mean_motion_ddot": 0,
        "tle_line1": "1 30214U 99025VX  25359.91114447  .00004199  00000+0  16078-2 0  9996",
        "tle_line2": "2 30214  98.7230  73.1104 0020170   3.7365  57.6974 14.31027904977553"
      },
      "geometry": {
        "type": "Point",
        "coordinates": [
          -23.65539714326714,
          81.20061821486142
        ]
      }
    },
    {
      "type": "Feature",
      "properties": {
        "norad_id": 30217,
        "name": "FENGYUN 1C DEB",
        "group": "fengyun-1c-debris",
        "lat": -61.53551508102111,
        "lon": -0.41082018860066705,
        "alt_km": 869.5188195000756,
        "timestamp": "2025-12-26T11:25:45.469325+00:00",
        "meta_object_name": "FENGYUN 1C DEB",
        "meta_object_id": "1999-025WA",
        "meta_epoch": "2025-12-26T04:58:54.950016",
        "meta_mean_motion": 14.248524,
        "meta_eccentricity": 0.0140625,
        "meta_inclination": 98.4329,
        "meta_ra_of_asc_node": 343.4507,
        "meta_arg_of_pericenter": 60.6891,
        "meta_mean_anomaly": 300.8257,
        "meta_ephemeris_type": 0,
        "meta_classification_type": "U",
        "meta_norad_cat_id": 30217,
        "meta_element_set_no": 999,
        "meta_rev_at_epoch": 98265,
        "meta_bstar": 0.00027951,
        "meta_mean_motion_dot": 6.82e-06,
        "meta_mean_motion_ddot": 0,
        "tle_line1": "1 30217U 99025WA  25360.20758044  .00000682  00000+0  27951-3 0  9996",
        "tle_line2": "2 30217  98.4329 343.4507 0140625  60.6891 300.8257 14.24852400982659"
      },
      "geometry": {
        "type": "Point",
        "coordinates": [
          -0.41082018860066705,
          -61.53551508102111
        ]
      }
    }
  ]
}